[{"OBJECT_NAME":"GEOSCAN 1 (RS92S1)","OBJECT_ID":"2025-155E","EPOCH":"2026-03-09T22:44:05.846496","MEAN_MOTION":15.28410635,"ECCENTRICITY":0.00087099,"INCLINATION":97.4463,"RA_OF_ASC_NODE":37.403,"ARG_OF_PERICENTER":153.6429,"MEAN_ANOMALY":206.5255,"EPHEMERIS_TYPE":0,"CLASSIFICATION_TYPE":"U","NORAD_CAT_ID":64880,"ELEMENT_SET_NO":999,"REV_AT_EPOCH":6560,"BSTAR":0.00054367431,"MEAN_MOTION_DOT":0.00014993,"MEAN_MOTION_DDOT":0},{"OBJECT_NAME":"STARLINK-35884","OBJECT_ID":"2025-294Q","EPOCH":"2026-03-09T22:49:23.966112","MEAN_MOTION":15.27590416,"ECCENTRICITY":7.907e-5,"INCLINATION":42.9978,"RA_OF_ASC_NODE":36.2104,"ARG_OF_PERICENTER":155.0667,"MEAN_ANOMALY":205.0223,"EPHEMERIS_TYPE":0,"CLASSIFICATION_TYPE":"U","NORAD_CAT_ID":67044,"ELEMENT_SET_NO":999,"REV_AT_EPOCH":1484,"BSTAR":0.00099283371,"MEAN_MOTION_DOT":0.00027168,"MEAN_MOTION_DDOT":0}]
